{"type": "FeatureCollection", "features": [ {"type": "Feature", "properties": {"norad_id": 34077, "name": "IRIDIUM 33 DEB", "group": "iridium-33-debris", "lat": 17.600775385950502, "lon": -128.09910252034433, "alt_km": 681.1743640733212, "timestamp": "2025-12-09T05:43:21.110608+00:00", "meta": {"OBJECT_NAME": "IRIDIUM 33 DEB", "OBJECT_ID": "1997-051CL", "EPOCH": "2025-12-08T16:24:26.668800", "MEAN_MOTION": 14.64746449, "ECCENTRICITY": 0.0010602, "INCLINATION": 86.3858, "RA_OF_ASC_NODE": 53.2941, "ARG_OF_PERICENTER": 52.2833, "MEAN_ANOMALY": 66.251, "EPHEMERIS_TYPE": 0, "CLASSIFICATION_TYPE": "U", "NORAD_CAT_ID": 34077, "ELEMENT_SET_NO": 999, "REV_AT_EPOCH": 88273, "BSTAR": 0.0022936, "MEAN_MOTION_DOT": 0.00012259, "MEAN_MOTION_DDOT": 0}, "tle": {"line1": "1 34077U 97051CL  25342.68364200  .00012259  00000+0  22936-2 0  9990", "line2": "2 34077  86.3858  53.2941 0010602  52.2833  66.2510 14.64746449882734"}}, "geometry": {"type": "Point", "coordinates": [-128.09910252034433, 17.600775385950502]}}, {"type": "Feature", "properties": {"norad_id": 34079, "name": "IRIDIUM 33 DEB", "group": "iridium-33-debris", "lat": -80.28086767485591, "lon": -11.455852055418218, "alt_km": 626.8275509866662, "timestamp": "2025-12-09T05:43:21.110619+00:00", "meta": {"OBJECT_NAME": "IRIDIUM 33 DEB", "OBJECT_ID": "1997-051CN", "EPOCH": "2025-12-08T14:27:48.844224", "MEAN_MOTION": 14.83361696, "ECCENTRICITY": 0.0006131, "INCLINATION": 86.3772, "RA_OF_ASC_NODE": 10.5432, "ARG_OF_PERICENTER": 20.96, "MEAN_ANOMALY": 105.1892, "EPHEMERIS_TYPE": 0, "CLASSIFICATION_TYPE": "U", "NORAD_CAT_ID": 34079, "ELEMENT_SET_NO": 999, "REV_AT_EPOCH": 88916, "BSTAR": 0.0020759, "MEAN_MOTION_DOT": 0.00017066, "MEAN_MOTION_DDOT": 0}, "tle": {"line1": "1 34079U 97051CN  25342.60264866  .00017066  00000+0  20759-2 0  9993", "line2": "2 34079  86.3772  10.5432 0006131  20.9600 105.1892 14.83361696889166"}}, "geometry": {"type": "Point", "coordinates": [-11.455852055418218, -80.28086767485591]}}, {"type": "Feature", "properties": {"norad_id": 34088, "name": "IRIDIUM 33 DEB", "group": "iridium-33-debris", "lat": -85.68394219025144, "lon": -24.56931514114846, "alt_km": 601.4538546914737, "timestamp": "2025-12-09T05:43:21.110631+00:00", "meta": {"OBJECT_NAME": "IRIDIUM 33 DEB", "OBJECT_ID": "1997-051CX", "EPOCH": "2025-12-08T16:09:48.162240", "MEAN_MOTION": 14.91078916, "ECCENTRICITY": 0.0005417, "INCLINATION": 86.3847, "RA_OF_ASC_NODE": 32.5918, "ARG_OF_PERICENTER": 191.4712, "MEAN_ANOMALY": 290.1472, "EPHEMERIS_TYPE": 0, "CLASSIFICATION_TYPE": "U", "NORAD_CAT_ID": 34088, "ELEMENT_SET_NO": 999, "REV_AT_EPOCH": 88681, "BSTAR": 0.0030217, "MEAN_MOTION_DOT": 0.00030047, "MEAN_MOTION_DDOT": 0}, "tle": {"line1": "1 34088U 97051CX  25342.67347410  .00030047  00000+0  30217-2 0  9991", "line2": "2 34088  86.3847  32.5918 0005417 191.4712 290.1472 14.91078916886813"}}, "geometry": {"type": "Point", "coordinates": [-24.56931514114846, -85.68394219025144]}}, {"type": "Feature", "properties": {"norad_id": 34091, "name": "IRIDIUM 33 DEB", "group": "iridium-33-debris", "lat": -38.76450163582992, "lon": -108.61792419401667, "alt_km": 630.2573562365596, "timestamp": "2025-12-09T05:43:21.110642+00:00", "meta": {"OBJECT_NAME": "IRIDIUM 33 DEB", "OBJECT_ID": "1997-051DA", "EPOCH": "2025-12-08T17:23:11.247072", "MEAN_MOTION": 14.81333009, "ECCENTRICITY": 0.0033208, "INCLINATION": 86.3416, "RA_OF_ASC_NODE": 68.6723, "ARG_OF_PERICENTER": 307.6397, "MEAN_ANOMALY": 52.1812, "EPHEMERIS_TYPE": 0, "CLASSIFICATION_TYPE": "U", "NORAD_CAT_ID": 34091, "ELEMENT_SET_NO": 999, "REV_AT_EPOCH": 87807, "BSTAR": 0.0065278, "MEAN_MOTION_DOT": 0.00051785, "MEAN_MOTION_DDOT": 0}, "tle": {"line1": "1 34091U 97051DA  25342.72443573  .00051785  00000+0  65278-2 0  9995", "line2": "2 34091  86.3416  68.6723 0033208 307.6397  52.1812 14.81333009878071"}}, "geometry": {"type": "Point", "coordinates": [-108.61792419401667, -38.76450163582992]}}, {"type": "Feature", "properties": {"norad_id": 34097, "name": "IRIDIUM 33 DEB", "group": "iridium-33-debris", "lat": -23.519814925222644, "lon": 1.2953633722525801, "alt_km": 733.876689203571, "timestamp": "2025-12-09T05:43:21.110653+00:00", "meta": {"OBJECT_NAME": "IRIDIUM 33 DEB", "OBJECT_ID": "1997-051DG", "EPOCH": "2025-12-08T13:05:32.171136", "MEAN_MOTION": 14.34726574, "ECCENTRICITY": 0.008307, "INCLINATION": 86.1999, "RA_OF_ASC_NODE": 3.2587, "ARG_OF_PERICENTER": 15.8457, "MEAN_ANOMALY": 344.5308, "EPHEMERIS_TYPE": 0, "CLASSIFICATION_TYPE": "U", "NORAD_CAT_ID": 34097, "ELEMENT_SET_NO": 999, "REV_AT_EPOCH": 87059, "BSTAR": 0.002047, "MEAN_MOTION_DOT": 6.046e-05, "MEAN_MOTION_DDOT": 0}, "tle": {"line1": "1 34097U 97051DG  25342.54551124  .00006046  00000+0  20470-2 0  9998", "line2": "2 34097  86.1999   3.2587 0083070  15.8457 344.5308 14.34726574870599"}}, "geometry": {"type": "Point", "coordinates": [1.2953633722525801, -23.519814925222644]}}, {"type": "Feature", "properties": {"norad_id": 34145, "name": "IRIDIUM 33 DEB", "group": "iridium-33-debris", "lat": 27.562700369704633, "lon": 152.1035057474355, "alt_km": 723.1224212843053, "timestamp": "2025-12-09T05:43:21.110663+00:00", "meta": {"OBJECT_NAME": "IRIDIUM 33 DEB", "OBJECT_ID": "1997-051DY", "EPOCH": "2025-12-07T23:03:04.751424", "MEAN_MOTION": 14.42235871, "ECCENTRICITY": 0.0055559, "INCLINATION": 86.2113, "RA_OF_ASC_NODE": 334.6546, "ARG_OF_PERICENTER": 109.0134, "MEAN_ANOMALY": 251.7097, "EPHEMERIS_TYPE": 0, "CLASSIFICATION_TYPE": "U", "NORAD_CAT_ID": 34145, "ELEMENT_SET_NO": 999, "REV_AT_EPOCH": 87569, "BSTAR": 0.0013920574, "MEAN_MOTION_DOT": 4.693e-05, "MEAN_MOTION_DDOT": 0}, "tle": {"line1": "1 34145U 97051DY  25341.96047166  .00004693  00000+0  13921-2 0  9992", "line2": "2 34145  86.2113 334.6546 0055559 109.0134 251.7097 14.42235871875691"}}, "geometry": {"type": "Point", "coordinates": [152.1035057474355, 27.562700369704633]}}, {"type": "Feature", "properties": {"norad_id": 34146, "name": "IRIDIUM 33 DEB", "group": "iridium-33-debris", "lat": 64.03205239676632, "lon": -0.9831176179334493, "alt_km": 740.3350223833031, "timestamp": "2025-12-09T05:43:21.110674+00:00", "meta": {"OBJECT_NAME": "IRIDIUM 33 DEB", "OBJECT_ID": "1997-051DZ", "EPOCH": "2025-12-08T11:45:05.493024", "MEAN_MOTION": 14.49003578, "ECCENTRICITY": 0.00251689, "INCLINATION": 86.2833, "RA_OF_ASC_NODE": 351.6777, "ARG_OF_PERICENTER": 236.7586, "MEAN_ANOMALY": 244.1016, "EPHEMERIS_TYPE": 0, "CLASSIFICATION_TYPE": "U", "NORAD_CAT_ID": 34146, "ELEMENT_SET_NO": 999, "REV_AT_EPOCH": 88045, "BSTAR": 0.0014201517, "MEAN_MOTION_DOT": 5.425e-05, "MEAN_MOTION_DDOT": 0}, "tle": {"line1": "1 34146U 97051DZ  25342.48964691  .00005425  00000+0  14202-2 0  9999", "line2": "2 34146  86.2833 351.6777 0025168 236.7586 244.1016 14.49003578880459"}}, "geometry": {"type": "Point", "coordinates": [-0.9831176179334493, 64.03205239676632]}}, {"type": "Feature", "properties": {"norad_id": 34159, "name": "IRIDIUM 33 DEB", "group": "iridium-33-debris", "lat": -85.9450084866486, "lon": -14.430306215343634, "alt_km": 754.6269115582973, "timestamp": "2025-12-09T05:43:21.110685+00:00", "meta": {"OBJECT_NAME": "IRIDIUM 33 DEB", "OBJECT_ID": "1997-051EN", "EPOCH": "2025-12-08T15:06:18.156384", "MEAN_MOTION": 14.38478952, "ECCENTRICITY": 0.0026048, "INCLINATION": 86.3515, "RA_OF_ASC_NODE": 49.9941, "ARG_OF_PERICENTER": 302.3389, "MEAN_ANOMALY": 57.5287, "EPHEMERIS_TYPE": 0, "CLASSIFICATION_TYPE": "U", "NORAD_CAT_ID": 34159, "ELEMENT_SET_NO": 999, "REV_AT_EPOCH": 87900, "BSTAR": 0.00073352, "MEAN_MOTION_DOT": 2.267e-05, "MEAN_MOTION_DDOT": 0}, "tle": {"line1": "1 34159U 97051EN  25342.62937681  .00002267  00000+0  73352-3 0  9991", "line2": "2 34159  86.3515  49.9941 0026048 302.3389  57.5287 14.38478952879005"}}, "geometry": {"type": "Point", "coordinates": [-14.430306215343634, -85.9450084866486]}}, {"type": "Feature", "properties": {"norad_id": 34350, "name": "IRIDIUM 33 DEB", "group": "iridium-33-debris", "lat": -34.19279450686308, "lon": -173.17241625941696, "alt_km": 741.1235750914011, "timestamp": "2025-12-09T05:43:21.110697+00:00", "meta": {"OBJECT_NAME": "IRIDIUM 33 DEB", "OBJECT_ID": "1997-051ES", "EPOCH": "2025-12-08T12:39:42.923232", "MEAN_MOTION": 14.45373543, "ECCENTRICITY": 0.00224112, "INCLINATION": 86.3278, "RA_OF_ASC_NODE": 4.6351, "ARG_OF_PERICENTER": 148.3477, "MEAN_ANOMALY": 329.0957, "EPHEMERIS_TYPE": 0, "CLASSIFICATION_TYPE": "U", "NORAD_CAT_ID": 34350, "ELEMENT_SET_NO": 999, "REV_AT_EPOCH": 88232, "BSTAR": 0.00058126986, "MEAN_MOTION_DOT": 2.069e-05, "MEAN_MOTION_DDOT": 0}, "tle": {"line1": "1 34350U 97051ES  25342.52758013  .00002069  00000+0  58127-3 0  9996", "line2": "2 34350  86.3278   4.6351 0022411 148.3477 329.0957 14.45373543882321"}}, "geometry": {"type": "Point", "coordinates": [-173.17241625941696, -34.19279450686308]}}, {"type": "Feature", "properties": {"norad_id": 34366, "name": "IRIDIUM 33 DEB", "group": "iridium-33-debris", "lat": 72.33640255108651, "lon": 62.337484375323356, "alt_km": 702.3953753548703, "timestamp": "2025-12-09T05:43:21.110707+00:00", "meta": {"OBJECT_NAME": "IRIDIUM 33 DEB", "OBJECT_ID": "1997-051FJ", "EPOCH": "2025-12-08T16:46:27.723936", "MEAN_MOTION": 14.54002861, "ECCENTRICITY": 0.0022165, "INCLINATION": 86.3693, "RA_OF_ASC_NODE": 51.0707, "ARG_OF_PERICENTER": 152.4858, "MEAN_ANOMALY": 338.307, "EPHEMERIS_TYPE": 0, "CLASSIFICATION_TYPE": "U", "NORAD_CAT_ID": 34366, "ELEMENT_SET_NO": 999, "REV_AT_EPOCH": 88123, "BSTAR": 0.001684, "MEAN_MOTION_DOT": 7.142e-05, "MEAN_MOTION_DDOT": 0}, "tle": {"line1": "1 34366U 97051FJ  25342.69893199  .00007142  00000+0  16840-2 0  9998", "line2": "2 34366  86.3693  51.0707 0022165 152.4858 338.3070 14.54002861881235"}}, "geometry": {"type": "Point", "coordinates": [62.337484375323356, 72.33640255108651]}}]}